STARLINK-31797          
1 59634U 24082D   26068.56394912 -.00000453  00000+0 -69527-5 0  9991
2 59634  43.0006 140.4405 0001214 261.4726  98.5988 15.27570618104831
FLOCK 4G-4              
1 62659U 25009BC  26068.75333732  .00011866  00000+0  45294-3 0  9997
2 62659  97.3994 150.7963 0001598 343.4316  16.6870 15.26803327121323
